{
  "type": "FeatureCollection",
  "features": [
    {
      "type": "Feature",
      "properties": {
        "norad_id": 66914,
        "name": "2025-284B",
        "group": "last-30-days",
        "lat": -58.366931937241475,
        "lon": 117.7755296784628,
        "alt_km": 508.1478795131816,
        "timestamp": "2025-12-09T14:52:24.943305+00:00",
        "meta_object_name": "2025-284B",
        "meta_object_id": "2025-284B",
        "meta_epoch": "2025-12-07T23:38:29.179680",
        "meta_mean_motion": 15.20093076,
        "meta_eccentricity": 0.00128589,
        "meta_inclination": 80.4047,
        "meta_ra_of_asc_node": 135.7909,
        "meta_arg_of_pericenter": 245.1407,
        "meta_mean_anomaly": 114.8485,
        "meta_ephemeris_type": 0,
        "meta_classification_type": "U",
        "meta_norad_cat_id": 66914,
        "meta_element_set_no": 999,
        "meta_rev_at_epoch": 40,
        "meta_bstar": 0.00060156278,
        "meta_mean_motion_dot": 0.00013048,
        "meta_mean_motion_ddot": 0,
        "tle_line1": "1 66914U 25284B   25341.98505995  .00013048  00000+0  60156-3 0  9998",
        "tle_line2": "2 66914  80.4047 135.7909 0012858 245.1407 114.8485 15.20093076   400"
      },
      "geometry": {
        "type": "Point",
        "coordinates": [
          117.7755296784628,
          -58.366931937241475
        ]
      }
    },
    {
      "type": "Feature",
      "properties": {
        "norad_id": 66915,
        "name": "HULIANWANG DIGUI 14A",
        "group": "last-30-days",
        "lat": -38.97945797308284,
        "lon": -7.20255833669586,
        "alt_km": 874.2723499794374,
        "timestamp": "2025-12-09T14:52:24.943317+00:00",
        "meta_object_name": "HULIANWANG DIGUI 14A",
        "meta_object_id": "2025-285A",
        "meta_epoch": "2025-12-09T05:13:34.330944",
        "meta_mean_motion": 14.05465816,
        "meta_eccentricity": 0.0008091,
        "meta_inclination": 50.0033,
        "meta_ra_of_asc_node": 131.6477,
        "meta_arg_of_pericenter": 270.8051,
        "meta_mean_anomaly": 89.1927,
        "meta_ephemeris_type": 0,
        "meta_classification_type": "U",
        "meta_norad_cat_id": 66915,
        "meta_element_set_no": 999,
        "meta_rev_at_epoch": 41,
        "meta_bstar": 9.461693e-06,
        "meta_mean_motion_dot": -1.37e-06,
        "meta_mean_motion_ddot": 0,
        "tle_line1": "1 66915U 25285A   25343.21775846 -.00000137  00000+0  94617-5 0  9999",
        "tle_line2": "2 66915  50.0033 131.6477 0008091 270.8051  89.1927 14.05465816   411"
      },
      "geometry": {
        "type": "Point",
        "coordinates": [
          -7.20255833669586,
          -38.97945797308284
        ]
      }
    },
    {
      "type": "Feature",
      "properties": {
        "norad_id": 66916,
        "name": "HULIANWANG DIGUI 14B",
        "group": "last-30-days",
        "lat": -39.317222151010554,
        "lon": -6.558775419528232,
        "alt_km": 874.5048477608498,
        "timestamp": "2025-12-09T14:52:24.943328+00:00",
        "meta_object_name": "HULIANWANG DIGUI 14B",
        "meta_object_id": "2025-285B",
        "meta_epoch": "2025-12-09T05:13:25.654656",
        "meta_mean_motion": 14.055122,
        "meta_eccentricity": 0.00069463,
        "meta_inclination": 50.0044,
        "meta_ra_of_asc_node": 131.6482,
        "meta_arg_of_pericenter": 265.5418,
        "meta_mean_anomaly": 94.4694,
        "meta_ephemeris_type": 0,
        "meta_classification_type": "U",
        "meta_norad_cat_id": 66916,
        "meta_element_set_no": 999,
        "meta_rev_at_epoch": 41,
        "meta_bstar": 9.336552e-06,
        "meta_mean_motion_dot": -1.37e-06,
        "meta_mean_motion_ddot": 0,
        "tle_line1": "1 66916U 25285B   25343.21765804 -.00000137  00000+0  93366-5 0  9993",
        "tle_line2": "2 66916  50.0044 131.6482 0006946 265.5418  94.4694 14.05512200   415"
      },
      "geometry": {
        "type": "Point",
        "coordinates": [
          -6.558775419528232,
          -39.317222151010554
        ]
      }
    },
    {
      "type": "Feature",
      "properties": {
        "norad_id": 66917,
        "name": "HULIANWANG DIGUI 14C",
        "group": "last-30-days",
        "lat": -39.77514089662338,
        "lon": -5.6598108218099465,
        "alt_km": 874.3137670766664,
        "timestamp": "2025-12-09T14:52:24.943338+00:00",
        "meta_object_name": "HULIANWANG DIGUI 14C",
        "meta_object_id": "2025-285C",
        "meta_epoch": "2025-12-09T05:13:12.725760",
        "meta_mean_motion": 14.05578301,
        "meta_eccentricity": 0.00075295,
        "meta_inclination": 50.001,
        "meta_ra_of_asc_node": 131.6443,
        "meta_arg_of_pericenter": 273.3383,
        "meta_mean_anomaly": 86.6661,
        "meta_ephemeris_type": 0,
        "meta_classification_type": "U",
        "meta_norad_cat_id": 66917,
        "meta_element_set_no": 999,
        "meta_rev_at_epoch": 41,
        "meta_bstar": -6.653075e-06,
        "meta_mean_motion_dot": -1.63e-06,
        "meta_mean_motion_ddot": 0,
        "tle_line1": "1 66917U 25285C   25343.21750840 -.00000163  00000+0 -66531-5 0  9992",
        "tle_line2": "2 66917  50.0010 131.6443 0007529 273.3383  86.6661 14.05578301   413"
      },
      "geometry": {
        "type": "Point",
        "coordinates": [
          -5.6598108218099465,
          -39.77514089662338
        ]
      }
    },
    {
      "type": "Feature",
      "properties": {
        "norad_id": 66918,
        "name": "HULIANWANG DIGUI 14D",
        "group": "last-30-days",
        "lat": -40.55072867067522,
        "lon": -4.086786686945009,
        "alt_km": 874.2362014310456,
        "timestamp": "2025-12-09T14:52:24.943348+00:00",
        "meta_object_name": "HULIANWANG DIGUI 14D",
        "meta_object_id": "2025-285D",
        "meta_epoch": "2025-12-09T05:12:51.799680",
        "meta_mean_motion": 14.05702773,
        "meta_eccentricity": 0.00064594,
        "meta_inclination": 50.0042,
        "meta_ra_of_asc_node": 131.6447,
        "meta_arg_of_pericenter": 268.3928,
        "meta_mean_anomaly": 91.6237,
        "meta_ephemeris_type": 0,
        "meta_classification_type": "U",
        "meta_norad_cat_id": 66918,
        "meta_element_set_no": 999,
        "meta_rev_at_epoch": 41,
        "meta_bstar": 9.186602e-06,
        "meta_mean_motion_dot": -1.37e-06,
        "meta_mean_motion_ddot": 0,
        "tle_line1": "1 66918U 25285D   25343.21726620 -.00000137  00000+0  91866-5 0  9991",
        "tle_line2": "2 66918  50.0042 131.6447 0006459 268.3928  91.6237 14.05702773   410"
      },
      "geometry": {
        "type": "Point",
        "coordinates": [
          -4.086786686945009,
          -40.55072867067522
        ]
      }
    },
    {
      "type": "Feature",
      "properties": {
        "norad_id": 66919,
        "name": "HULIANWANG DIGUI 14E",
        "group": "last-30-days",
        "lat": -40.657101362235025,
        "lon": -3.8640792118008824,
        "alt_km": 874.0225701872314,
        "timestamp": "2025-12-09T14:52:24.943359+00:00",
        "meta_object_name": "HULIANWANG DIGUI 14E",
        "meta_object_id": "2025-285E",
        "meta_epoch": "2025-12-09T05:12:48.055968",
        "meta_mean_motion": 14.05713931,
        "meta_eccentricity": 0.0007844,
        "meta_inclination": 50.0055,
        "meta_ra_of_asc_node": 131.6472,
        "meta_arg_of_pericenter": 279.822,
        "meta_mean_anomaly": 80.1799,
        "meta_ephemeris_type": 0,
        "meta_classification_type": "U",
        "meta_norad_cat_id": 66919,
        "meta_element_set_no": 999,
        "meta_rev_at_epoch": 41,
        "meta_bstar": -9.735283e-06,
        "meta_mean_motion_dot": -1.68e-06,
        "meta_mean_motion_ddot": 0,
        "tle_line1": "1 66919U 25285E   25343.21722287 -.00000168  00000+0 -97353-5 0  9999",
        "tle_line2": "2 66919  50.0055 131.6472 0007844 279.8220  80.1799 14.05713931   418"
      },
      "geometry": {
        "type": "Point",
        "coordinates": [
          -3.8640792118008824,
          -40.657101362235025
        ]
      }
    },
    {
      "type": "Feature",
      "properties": {
        "norad_id": 66920,
        "name": "HULIANWANG DIGUI 14F",
        "group": "last-30-days",
        "lat": -41.46301142131869,
        "lon": -2.125956947068434,
        "alt_km": 874.4433541866183,
        "timestamp": "2025-12-09T14:52:24.943371+00:00",
        "meta_object_name": "HULIANWANG DIGUI 14F",
        "meta_object_id": "2025-285F",
        "meta_epoch": "2025-12-09T05:12:25.833024",
        "meta_mean_motion": 14.05848922,
        "meta_eccentricity": 0.00058293,
        "meta_inclination": 50.0088,
        "meta_ra_of_asc_node": 131.6489,
        "meta_arg_of_pericenter": 276.7247,
        "meta_mean_anomaly": 83.2995,
        "meta_ephemeris_type": 0,
        "meta_classification_type": "U",
        "meta_norad_cat_id": 66920,
        "meta_element_set_no": 999,
        "meta_rev_at_epoch": 41,
        "meta_bstar": 0.0001126166,
        "meta_mean_motion_dot": 3.3e-07,
        "meta_mean_motion_ddot": 0,
        "tle_line1": "1 66920U 25285F   25343.21696566  .00000033  00000+0  11262-3 0  9993",
        "tle_line2": "2 66920  50.0088 131.6489 0005829 276.7247  83.2995 14.05848922   411"
      },
      "geometry": {
        "type": "Point",
        "coordinates": [
          -2.125956947068434,
          -41.46301142131869
        ]
      }
    }
  ]
}